{"type":"FeatureCollection","features":[{"type":"Feature","id":"13023","properties":{"name":"Bleckley"},"geometry":{"type":"Polygon","coordinates":[[[-83.49624438214381,32.4526200903909],[-83.22704733267332,32.58405622305222],[-83.22704733267332,32.58405622305222],[-83.13731498284983,32.4234120609106],[-83.13731498284983,32.4234120609106],[-83.17320792277923,32.4526200903909],[-83.30601180051801,32.3418013903039],[-83.28447603656036,32.324620196491956],[-83.34549403444034,32.27221755536555],[-83.34549403444034,32.27221755536555],[-83.49624438214381,32.40193556864568],[-83.49624438214381,32.40193556864568],[-83.49624438214381,32.4526200903909]]]}},{"type":"Feature","id":"13169","properties":{"name":"Jones"},"geometry":{"type":"Polygon","coordinates":[[[-83.81569154751547,33.13213630565305],[-83.54649449804498,33.171653051420506],[-83.54649449804498,33.171653051420506],[-83.42804779627797,33.18539800647006],[-83.42804779627797,33.18539800647006],[-83.4136906203062,33.10550545524455],[-83.35626191641916,32.92596197990979],[-83.35626191641916,32.92596197990979],[-83.40651203232032,32.898472069810694],[-83.40651203232032,32.898472069810694],[-83.51419085210851,32.84521036899368],[-83.51419085210851,32.84521036899368],[-83.60033390793907,32.88816335352353],[-83.65776261182612,32.88816335352353],[-83.69724484574846,32.91651232331323],[-83.71160202172021,32.952592830318295],[-83.71160202172021,32.952592830318295],[-83.74749496164961,33.0634115304053],[-83.81569154751547,33.13213630565305]]]}},{"type":"Feature","id":"13021","properties":{"name":"Bibb"},"geometry":{"type":"Polygon","coordinates":[[[-83.89106672136721,32.84864660775607],[-83.71160202172021,32.952592830318295],[-83.71160202172021,32.952592830318295],[-83.69724484574846,32.91651232331323],[-83.65776261182612,32.88816335352353],[-83.60033390793907,32.88816335352353],[-83.51419085210851,32.84521036899368],[-83.51419085210851,32.84521036899368],[-83.48906579415794,32.82373387672876],[-83.57879814398143,32.73782790766907],[-83.60392320193202,32.74126414643146],[-83.6111017899179,32.68886150530505],[-83.59674461394614,32.663948774277735],[-83.59674461394614,32.663948774277735],[-83.66494119981199,32.6742574905649],[-83.70083413974139,32.69229774406743],[-83.70083413974139,32.69229774406743],[-83.7367270796708,32.69401586344863],[-83.8085129595296,32.7300963704537],[-83.89106672136721,32.81943857827578],[-83.89106672136721,32.84864660775607]]]}},{"type":"Feature","id":"13035","properties":{"name":"Butts"},"geometry":{"type":"Polygon","coordinates":[[[-84.10283506695066,33.297934825938256],[-84.05976353903539,33.30996166160661],[-84.03104918709187,33.36150524304242],[-83.962852601226,33.375250198091976],[-83.97362048320483,33.40789446633466],[-83.92337036730368,33.44397497333973],[-83.92337036730368,33.44397497333973],[-83.91260248532485,33.417344122931226],[-83.86235236942369,33.3683777205672],[-83.86235236942369,33.3683777205672],[-83.84081660546605,33.328860974799746],[-83.81569154751547,33.24209594604945],[-83.82287013550135,33.180243648326474],[-83.82287013550135,33.180243648326474],[-83.85876307543076,33.2008610809008],[-84.04181706907069,33.202579200281995],[-84.04181706907069,33.202579200281995],[-84.1243708309083,33.202579200281995],[-84.1243708309083,33.202579200281995],[-84.1243708309083,33.252404662336616],[-84.08847789097891,33.2859079902699],[-84.10283506695066,33.297934825938256]]]}},{"type":"Feature","id":"13171","properties":{"name":"Lamar"},"geometry":{"type":"Polygon","coordinates":[[[-84.24640682666826,33.18883424523245],[-84.22487106271062,33.179384588635884],[-84.1243708309083,33.178525528945286],[-84.1243708309083,33.202579200281995],[-84.1243708309083,33.202579200281995],[-84.04181706907069,33.202579200281995],[-84.04181706907069,33.202579200281995],[-84.04181706907069,33.029049142781425],[-84.05258495104951,32.93111633805337],[-84.1243708309083,32.93197539774397],[-84.1243708309083,32.93197539774397],[-84.12078153691536,32.98953239701397],[-84.27153188461884,32.991250516395155],[-84.27153188461884,32.991250516395155],[-84.24999612066121,33.03935785906859],[-84.24640682666826,33.18883424523245]]]}},{"type":"Feature","id":"13009","properties":{"name":"Baldwin"},"geometry":{"type":"Polygon","coordinates":[[[-83.27370815458154,33.187116125851254],[-83.19474368673687,33.175948349873494],[-83.09783274892749,33.15103561884618],[-83.11936851288513,33.083169903289026],[-83.10142204292043,33.05052563504634],[-83.05117192701927,33.08059272421723],[-83.05117192701927,33.08059272421723],[-83.06911839698397,33.02733102340023],[-83.04758263302632,32.98523709856098],[-83.07270769097691,32.94657941248412],[-83.07270769097691,32.94657941248412],[-83.14808286482865,33.0084317102071],[-83.35626191641916,32.92596197990979],[-83.35626191641916,32.92596197990979],[-83.4136906203062,33.10550545524455],[-83.42804779627797,33.18539800647006],[-83.42804779627797,33.18539800647006],[-83.36344050440503,33.180243648326474],[-83.27370815458154,33.187116125851254]]]}},{"type":"Feature","id":"13193","properties":{"name":"Macon"},"geometry":{"type":"MultiPolygon","coordinates":[[[[-84.00233483514835,32.52993546254462],[-84.00951342313422,32.52134486563865],[-84.00951342313422,32.52134486563865],[-84.05258495104951,32.52220392532925],[-84.05258495104951,32.52220392532925],[-84.00233483514835,32.52993546254462]]],[[[-84.25358541465414,32.37186847947479],[-84.25358541465414,32.3959221508115],[-84.1961567107671,32.401076508955086],[-84.12078153691536,32.505881791207905],[-84.05258495104951,32.52220392532925],[-84.05258495104951,32.52220392532925],[-84.01669201112011,32.5067408508985],[-84.01669201112011,32.5067408508985],[-83.93413824928248,32.505881791207905],[-83.84799519345194,32.46894222451224],[-83.84799519345194,32.46894222451224],[-83.83722731147311,32.382177195761955],[-83.84799519345194,32.29111686855868],[-83.84799519345194,32.29111686855868],[-83.89824530935309,32.28080815227152],[-83.96644189521895,32.248163884028834],[-84.02745989309892,32.170848511875114],[-84.02745989309892,32.170848511875114],[-84.08488859698596,32.19146594444944],[-84.13513871288713,32.18545252661526],[-84.13513871288713,32.22754645145451],[-84.18179953479535,32.2301236305263],[-84.18179953479535,32.2301236305263],[-84.22128176871769,32.2309826902169],[-84.21769247472474,32.29541216701166],[-84.25717470864709,32.29627122670226],[-84.25358541465414,32.37186847947479]]]]}},{"type":"Feature","id":"13269","properties":{"name":"Taylor"},"geometry":{"type":"MultiPolygon","coordinates":[[[[-84.05258495104951,32.52220392532925],[-84.00951342313422,32.52134486563865],[-84.00951342313422,32.52134486563865],[-84.01669201112011,32.5067408508985],[-84.01669201112011,32.5067408508985],[-84.05258495104951,32.52220392532925]]],[[[-84.44381799627996,32.56172067109671],[-84.40792505635056,32.56172067109671],[-84.40792505635056,32.61068707346073],[-84.37921070440704,32.632163565725655],[-84.36485352843528,32.67941184870848],[-84.3397284704847,32.67941184870848],[-84.3397284704847,32.720646713857136],[-84.2858890605906,32.74727756426564],[-84.2858890605906,32.74727756426564],[-84.25717470864709,32.72236483323832],[-84.23563894468944,32.73868696735967],[-84.20333529875299,32.689720564995646],[-84.20333529875299,32.689720564995646],[-84.1064243609436,32.6733984308743],[-84.05617424504244,32.636458864178636],[-84.07053142101421,32.59866023779237],[-84.05258495104951,32.566875029240286],[-84.00233483514835,32.52993546254462],[-84.00233483514835,32.52993546254462],[-84.05258495104951,32.52220392532925],[-84.05258495104951,32.52220392532925],[-84.12078153691536,32.505881791207905],[-84.1961567107671,32.401076508955086],[-84.25358541465414,32.3959221508115],[-84.25358541465414,32.37186847947479],[-84.25358541465414,32.37186847947479],[-84.32537129451295,32.37272753916539],[-84.32178200052,32.397640270192696],[-84.36485352843528,32.397640270192696],[-84.36126423444234,32.42770735936359],[-84.3935678803788,32.413962404314034],[-84.3935678803788,32.413962404314034],[-84.40792505635056,32.48526435863358],[-84.43305011430114,32.49299589584895],[-84.45458587825878,32.5342307609976],[-84.44381799627996,32.56172067109671]]]]}},{"type":"Feature","id":"13293","properties":{"name":"Upson"},"geometry":{"type":"Polygon","coordinates":[[[-84.52637175811758,32.970633083820836],[-84.49047881818818,32.99382769546695],[-84.27153188461884,32.991250516395155],[-84.27153188461884,32.991250516395155],[-84.12078153691536,32.98953239701397],[-84.1243708309083,32.93197539774397],[-84.1243708309083,32.93197539774397],[-84.1243708309083,32.84950566744667],[-84.1243708309083,32.84950566744667],[-84.1243708309083,32.80053926508265],[-84.14949588885888,32.801398324773245],[-84.20333529875299,32.689720564995646],[-84.20333529875299,32.689720564995646],[-84.23563894468944,32.73868696735967],[-84.25717470864709,32.72236483323832],[-84.2858890605906,32.74727756426564],[-84.2858890605906,32.74727756426564],[-84.38997858638587,32.786794310033095],[-84.42228223232232,32.83833789146891],[-84.45817517225171,32.82974729456294],[-84.50842528815288,32.88214993568935],[-84.50842528815288,32.88214993568935],[-84.52637175811758,32.91307608455084],[-84.52637175811758,32.970633083820836]]]}},{"type":"Feature","id":"13153","properties":{"name":"Houston"},"geometry":{"type":"Polygon","coordinates":[[[-83.84799519345194,32.46894222451224],[-83.79774507755077,32.44660667255672],[-83.79774507755077,32.49643213461134],[-83.74749496164961,32.50502273151731],[-83.74749496164961,32.5342307609976],[-83.71878060970609,32.531653581925816],[-83.71878060970609,32.63474074479744],[-83.70083413974139,32.69143868437684],[-83.70083413974139,32.69143868437684],[-83.70083413974139,32.69229774406743],[-83.70083413974139,32.69229774406743],[-83.66494119981199,32.6742574905649],[-83.59674461394614,32.663948774277735],[-83.59674461394614,32.663948774277735],[-83.5572623800238,32.652780998299974],[-83.53572661606616,32.586633402124015],[-83.54649449804498,32.57202938738387],[-83.51778014610146,32.49900931368313],[-83.48906579415794,32.48526435863358],[-83.49624438214381,32.4526200903909],[-83.49624438214381,32.4526200903909],[-83.49624438214381,32.40193556864568],[-83.49624438214381,32.40193556864568],[-83.52495873408733,32.40193556864568],[-83.61469108391084,32.28853968948689],[-83.61469108391084,32.28853968948689],[-83.84799519345194,32.29111686855868],[-83.84799519345194,32.29111686855868],[-83.83722731147311,32.382177195761955],[-83.84799519345194,32.46894222451224]]]}},{"type":"Feature","id":"13207","properties":{"name":"Monroe"},"geometry":{"type":"Polygon","coordinates":[[[-84.1243708309083,32.93197539774397],[-84.05258495104951,32.93111633805337],[-84.04181706907069,33.029049142781425],[-84.04181706907069,33.202579200281995],[-84.04181706907069,33.202579200281995],[-83.85876307543076,33.2008610809008],[-83.82287013550135,33.180243648326474],[-83.82287013550135,33.180243648326474],[-83.81569154751547,33.13213630565305],[-83.81569154751547,33.13213630565305],[-83.74749496164961,33.0634115304053],[-83.71160202172021,32.952592830318295],[-83.71160202172021,32.952592830318295],[-83.89106672136721,32.84864660775607],[-83.89106672136721,32.84864660775607],[-84.1243708309083,32.84950566744667],[-84.1243708309083,32.84950566744667],[-84.1243708309083,32.93197539774397]]]}},{"type":"Feature","id":"13225","properties":{"name":"Peach"},"geometry":{"type":"Polygon","coordinates":[[[-84.00951342313422,32.52134486563865],[-84.00233483514835,32.52993546254462],[-84.00233483514835,32.52993546254462],[-83.7654414316143,32.69229774406743],[-83.70083413974139,32.69143868437684],[-83.70083413974139,32.69143868437684],[-83.71878060970609,32.63474074479744],[-83.71878060970609,32.531653581925816],[-83.74749496164961,32.5342307609976],[-83.74749496164961,32.50502273151731],[-83.79774507755077,32.49643213461134],[-83.79774507755077,32.44660667255672],[-83.84799519345194,32.46894222451224],[-83.84799519345194,32.46894222451224],[-83.93413824928248,32.505881791207905],[-84.01669201112011,32.5067408508985],[-84.01669201112011,32.5067408508985],[-84.00951342313422,32.52134486563865]]]}},{"type":"Feature","id":"13159","properties":{"name":"Jasper"},"geometry":{"type":"Polygon","coordinates":[[[-83.86235236942369,33.3683777205672],[-83.83004872348724,33.39329045159451],[-83.82645942949429,33.437102495814955],[-83.7726200196002,33.452565570245696],[-83.7367270796708,33.48091454003539],[-83.67570908179081,33.486927957869575],[-83.68288766977669,33.52644470363703],[-83.68288766977669,33.52644470363703],[-83.53213732207321,33.43452531674316],[-83.53213732207321,33.43452531674316],[-83.5393159100591,33.39414951128511],[-83.54649449804498,33.171653051420506],[-83.54649449804498,33.171653051420506],[-83.81569154751547,33.13213630565305],[-83.81569154751547,33.13213630565305],[-83.82287013550135,33.180243648326474],[-83.82287013550135,33.180243648326474],[-83.81569154751547,33.24209594604945],[-83.84081660546605,33.328860974799746],[-83.86235236942369,33.3683777205672]]]}},{"type":"Feature","id":"13289","properties":{"name":"Twiggs"},"geometry":{"type":"Polygon","coordinates":[[[-83.51419085210851,32.84521036899368],[-83.40651203232032,32.898472069810694],[-83.40651203232032,32.898472069810694],[-83.22704733267332,32.58405622305222],[-83.22704733267332,32.58405622305222],[-83.49624438214381,32.4526200903909],[-83.49624438214381,32.4526200903909],[-83.48906579415794,32.48526435863358],[-83.51778014610146,32.49900931368313],[-83.54649449804498,32.57202938738387],[-83.53572661606616,32.586633402124015],[-83.5572623800238,32.652780998299974],[-83.59674461394614,32.663948774277735],[-83.59674461394614,32.663948774277735],[-83.6111017899179,32.68886150530505],[-83.60392320193202,32.74126414643146],[-83.57879814398143,32.73782790766907],[-83.48906579415794,32.82373387672876],[-83.51419085210851,32.84521036899368]]]}},{"type":"Feature","id":"13319","properties":{"name":"Wilkinson"},"geometry":{"type":"Polygon","coordinates":[[[-83.35626191641916,32.92596197990979],[-83.14808286482865,33.0084317102071],[-83.07270769097691,32.94657941248412],[-83.07270769097691,32.94657941248412],[-83.0260468690687,32.856378144971444],[-82.96861816518165,32.83404259301592],[-82.94708240122401,32.759304399933995],[-82.94708240122401,32.759304399933995],[-82.95785028320283,32.70861987818878],[-82.95785028320283,32.70861987818878],[-83.22704733267332,32.58405622305222],[-83.22704733267332,32.58405622305222],[-83.40651203232032,32.898472069810694],[-83.40651203232032,32.898472069810694],[-83.35626191641916,32.92596197990979]]]}},{"type":"Feature","id":"13079","properties":{"name":"Crawford"},"geometry":{"type":"Polygon","coordinates":[[[-84.20333529875299,32.689720564995646],[-84.14949588885888,32.801398324773245],[-84.1243708309083,32.80053926508265],[-84.1243708309083,32.84950566744667],[-84.1243708309083,32.84950566744667],[-83.89106672136721,32.84864660775607],[-83.89106672136721,32.84864660775607],[-83.89106672136721,32.81943857827578],[-83.8085129595296,32.7300963704537],[-83.7367270796708,32.69401586344863],[-83.70083413974139,32.69229774406743],[-83.70083413974139,32.69229774406743],[-83.70083413974139,32.69143868437684],[-83.70083413974139,32.69143868437684],[-83.7654414316143,32.69229774406743],[-84.00233483514835,32.52993546254462],[-84.00233483514835,32.52993546254462],[-84.05258495104951,32.566875029240286],[-84.07053142101421,32.59866023779237],[-84.05617424504244,32.636458864178636],[-84.1064243609436,32.6733984308743],[-84.20333529875299,32.689720564995646]]]}},{"type":"Feature","id":"13237","properties":{"name":"Putnam"},"geometry":{"type":"Polygon","coordinates":[[[-83.53213732207321,33.43452531674316],[-83.28088674256742,33.483491719107185],[-83.28088674256742,33.483491719107185],[-83.24140450864509,33.41820318262182],[-83.24499380263802,33.399303869428685],[-83.1983329807298,33.395008570975705],[-83.1624400408004,33.35463276551765],[-83.1624400408004,33.35463276551765],[-83.1444935708357,33.30996166160661],[-83.2521723906239,33.259277139861396],[-83.27370815458154,33.187116125851254],[-83.27370815458154,33.187116125851254],[-83.36344050440503,33.180243648326474],[-83.42804779627797,33.18539800647006],[-83.42804779627797,33.18539800647006],[-83.54649449804498,33.171653051420506],[-83.54649449804498,33.171653051420506],[-83.5393159100591,33.39414951128511],[-83.53213732207321,33.43452531674316]]]}}]}